start=new Date('2023-01-13T00:00:00.000Z').valueOf();
sats=[{"ECCENTRICITY":"0.00022110","TIME_SYSTEM":"UTC","OBJECT_ID":"2022-097B","EPOCH":"2023-01-12T22:24:29.076768","MEAN_ELEMENT_THEORY":"SGP4","INCLINATION":"53.2166","LAUNCH_DATE":"2022-08-10","REV_AT_EPOCH":"2479","CLASSIFICATION_TYPE":"U","FILE":"3742227","NORAD_CAT_ID":"53389","OBJECT_TYPE":"PAYLOAD","CENTER_NAME":"EARTH","ARG_OF_PERICENTER":"34.7044","COUNTRY_CODE":"US","OBJECT_NAME":"STARLINK-4523","GP_ID":"222892178","PERIAPSIS":"538.187","MEAN_MOTION":"15.08849572","SEMIMAJOR_AXIS":"6917.851","REF_FRAME":"TEME","MEAN_MOTION_DOT":"0.00002508","SITE":"AFETR","ELEMENT_SET_NO":"999","TLE_LINE2":"2 53389  53.2166 254.5650 0002211  34.7044 325.4092 15.08849572 24794","MEAN_MOTION_DDOT":"0.0000000000000","APOAPSIS":"541.246","MEAN_ANOMALY":"325.4092","PERIOD":"95.437","RA_OF_ASC_NODE":"254.5650","DECAY_DATE":null,"BSTAR":"0.00017556000000","RCS_SIZE":"LARGE","EPHEMERIS_TYPE":"0","TLE_LINE1":"1 53389U 22097B   23012.93366987  .00002508  00000-0  17556-3 0  9999"},{"GP_ID":"222892415","MEAN_MOTION":"15.08838319","SEMIMAJOR_AXIS":"6917.886","PERIAPSIS":"537.908","CENTER_NAME":"EARTH","OBJECT_TYPE":"PAYLOAD","NORAD_CAT_ID":"53390","FILE":"3742227","OBJECT_NAME":"STARLINK-4517","COUNTRY_CODE":"US","ARG_OF_PERICENTER":"29.2622","CLASSIFICATION_TYPE":"U","REV_AT_EPOCH":"2494","LAUNCH_DATE":"2022-08-10","INCLINATION":"53.2154","ECCENTRICITY":"0.00026640","TIME_SYSTEM":"UTC","EPOCH":"2023-01-12T22:29:48.792192","MEAN_ELEMENT_THEORY":"SGP4","OBJECT_ID":"2022-097C","EPHEMERIS_TYPE":"0","RCS_SIZE":"LARGE","TLE_LINE1":"1 53390U 22097C   23012.93737028 -.00001210  00000-0 -57899-4 0  9995","RA_OF_ASC_NODE":"254.5547","BSTAR":"-0.00005789900000","DECAY_DATE":null,"TLE_LINE2":"2 53390  53.2154 254.5547 0002664  29.2622 330.8519 15.08838319 24949","MEAN_ANOMALY":"330.8519","APOAPSIS":"541.593","PERIOD":"95.438","MEAN_MOTION_DDOT":"0.0000000000000","MEAN_MOTION_DOT":"-0.00001210","REF_FRAME":"TEME","ELEMENT_SET_NO":"999","SITE":"AFETR"},{"RCS_SIZE":"LARGE","EPHEMERIS_TYPE":"0","TLE_LINE1":"1 53391U 22097D   23012.93002037  .00000492  00000-0  49037-4 0  9995","RA_OF_ASC_NODE":"254.5867","BSTAR":"0.00004903700000","DECAY_DATE":null,"TLE_LINE2":"2 53391  53.2136 254.5867 0002558  36.7795 323.3373 15.08840063 24798","MEAN_ANOMALY":"323.3373","APOAPSIS":"541.515","PERIOD":"95.438","MEAN_MOTION_DDOT":"0.0000000000000","MEAN_MOTION_DOT":"0.00000492","REF_FRAME":"TEME","ELEMENT_SET_NO":"999","SITE":"AFETR","GP_ID":"222892652","PERIAPSIS":"537.976","MEAN_MOTION":"15.08840063","SEMIMAJOR_AXIS":"6917.880","CENTER_NAME":"EARTH","FILE":"3742227","NORAD_CAT_ID":"53391","OBJECT_TYPE":"PAYLOAD","OBJECT_NAME":"STARLINK-4521","ARG_OF_PERICENTER":"36.7795","COUNTRY_CODE":"US","LAUNCH_DATE":"2022-08-10","INCLINATION":"53.2136","REV_AT_EPOCH":"2479","CLASSIFICATION_TYPE":"U","TIME_SYSTEM":"UTC","ECCENTRICITY":"0.00025580","OBJECT_ID":"2022-097D","EPOCH":"2023-01-12T22:19:13.759968","MEAN_ELEMENT_THEORY":"SGP4"},{"OBJECT_TYPE":"PAYLOAD","FILE":"3742227","NORAD_CAT_ID":"53392","CENTER_NAME":"EARTH","COUNTRY_CODE":"US","ARG_OF_PERICENTER":"23.0103","OBJECT_NAME":"STARLINK-4535","GP_ID":"222892887","SEMIMAJOR_AXIS":"6917.846","MEAN_MOTION":"15.08851184","PERIAPSIS":"538.074","ECCENTRICITY":"0.00023660","TIME_SYSTEM":"UTC","EPOCH":"2023-01-12T22:08:35.985408","MEAN_ELEMENT_THEORY":"SGP4","OBJECT_ID":"2022-097E","CLASSIFICATION_TYPE":"U","LAUNCH_DATE":"2022-08-10","REV_AT_EPOCH":"2479","INCLINATION":"53.2151","RA_OF_ASC_NODE":"254.6169","DECAY_DATE":null,"BSTAR":"0.00019795000000","EPHEMERIS_TYPE":"0","RCS_SIZE":"LARGE","TLE_LINE1":"1 53392U 22097E   23012.92263872  .00002864  00000-0  19795-3 0  9993","REF_FRAME":"TEME","MEAN_MOTION_DOT":"0.00002864","SITE":"AFETR","ELEMENT_SET_NO":"999","TLE_LINE2":"2 53392  53.2151 254.6169 0002366  23.0103 337.0995 15.08851184 24799","MEAN_MOTION_DDOT":"0.0000000000000","APOAPSIS":"541.348","MEAN_ANOMALY":"337.0995","PERIOD":"95.437"},{"CLASSIFICATION_TYPE":"U","INCLINATION":"53.2136","LAUNCH_DATE":"2022-08-10","REV_AT_EPOCH":"2479","ECCENTRICITY":"0.00016670","TIME_SYSTEM":"UTC","MEAN_ELEMENT_THEORY":"SGP4","EPOCH":"2023-01-12T22:13:55.841664","OBJECT_ID":"2022-097F","GP_ID":"222891702","SEMIMAJOR_AXIS":"6917.943","MEAN_MOTION":"15.08819538","PERIAPSIS":"538.655","OBJECT_TYPE":"PAYLOAD","NORAD_CAT_ID":"53393","FILE":"3742227","CENTER_NAME":"EARTH","COUNTRY_CODE":"US","ARG_OF_PERICENTER":"72.0538","OBJECT_NAME":"STARLINK-4530","TLE_LINE2":"2 53393  53.2136 254.5963 0001667  72.0538 288.0636 15.08819538 24797","MEAN_MOTION_DDOT":"0.0000000000000","PERIOD":"95.439","APOAPSIS":"540.961","MEAN_ANOMALY":"288.0636","REF_FRAME":"TEME","MEAN_MOTION_DOT":"-0.00007176","SITE":"AFETR","ELEMENT_SET_NO":"999","EPHEMERIS_TYPE":"0","RCS_SIZE":"LARGE","TLE_LINE1":"1 53393U 22097F   23012.92634076 -.00007176  00000-0 -43344-3 0  9992","RA_OF_ASC_NODE":"254.5963","DECAY_DATE":null,"BSTAR":"-0.00043344000000"},{"REV_AT_EPOCH":"2491","LAUNCH_DATE":"2022-08-10","INCLINATION":"53.2145","CLASSIFICATION_TYPE":"U","TIME_SYSTEM":"UTC","ECCENTRICITY":"0.00018570","OBJECT_ID":"2022-097G","MEAN_ELEMENT_THEORY":"SGP4","EPOCH":"2023-01-12T18:07:32.108736","GP_ID":"222891939","PERIAPSIS":"538.480","SEMIMAJOR_AXIS":"6917.899","MEAN_MOTION":"15.08833770","FILE":"3742227","NORAD_CAT_ID":"53394","OBJECT_TYPE":"PAYLOAD","CENTER_NAME":"EARTH","ARG_OF_PERICENTER":"84.9209","COUNTRY_CODE":"US","OBJECT_NAME":"STARLINK-4544","TLE_LINE2":"2 53394  53.2145 245.1292 0001857  84.9209 275.1995 15.08833770 24910","MEAN_MOTION_DDOT":"0.0000000000000","APOAPSIS":"541.049","PERIOD":"95.438","MEAN_ANOMALY":"275.1995","REF_FRAME":"TEME","MEAN_MOTION_DOT":"-0.00000778","SITE":"AFETR","ELEMENT_SET_NO":"999","RCS_SIZE":"LARGE","EPHEMERIS_TYPE":"0","TLE_LINE1":"1 53394U 22097G   23012.75523274 -.00000778  00000-0 -30774-4 0  9996","RA_OF_ASC_NODE":"245.1292","DECAY_DATE":null,"BSTAR":"-0.00003077400000"},{"REF_FRAME":"TEME","MEAN_MOTION_DOT":"0.00002493","SITE":"AFETR","ELEMENT_SET_NO":"999","TLE_LINE2":"2 53395  53.2138 254.3321 0001277  78.6944 281.4192 15.08844645 24158","MEAN_MOTION_DDOT":"0.0000000000000","MEAN_ANOMALY":"281.4192","APOAPSIS":"540.615","PERIOD":"95.437","RA_OF_ASC_NODE":"254.3321","DECAY_DATE":null,"BSTAR":"0.00017463000000","EPHEMERIS_TYPE":"0","RCS_SIZE":"LARGE","TLE_LINE1":"1 53395U 22097H   23012.98521511  .00002493  00000-0  17463-3 0  9997","ECCENTRICITY":"0.00012770","TIME_SYSTEM":"UTC","MEAN_ELEMENT_THEORY":"SGP4","EPOCH":"2023-01-12T23:38:42.585504","OBJECT_ID":"2022-097H","CLASSIFICATION_TYPE":"U","INCLINATION":"53.2138","LAUNCH_DATE":"2022-08-10","REV_AT_EPOCH":"2415","OBJECT_TYPE":"PAYLOAD","NORAD_CAT_ID":"53395","FILE":"3742116","CENTER_NAME":"EARTH","COUNTRY_CODE":"US","ARG_OF_PERICENTER":"78.6944","OBJECT_NAME":"STARLINK-4534","GP_ID":"222864794","MEAN_MOTION":"15.08844645","SEMIMAJOR_AXIS":"6917.866","PERIAPSIS":"538.848"},{"DECAY_DATE":null,"BSTAR":"0.00022680000000","RA_OF_ASC_NODE":"254.1001","TLE_LINE1":"1 53396U 22097J   23013.03671135  .00003325  00000-0  22680-3 0  9995","EPHEMERIS_TYPE":"0","RCS_SIZE":"LARGE","SITE":"AFETR","ELEMENT_SET_NO":"999","REF_FRAME":"TEME","MEAN_MOTION_DOT":"0.00003325","MEAN_MOTION_DDOT":"0.0000000000000","APOAPSIS":"541.611","MEAN_ANOMALY":"333.7188","PERIOD":"95.436","TLE_LINE2":"2 53396  53.2172 254.1001 0002793  26.3946 333.7188 15.08861618 24162","COUNTRY_CODE":"US","ARG_OF_PERICENTER":"26.3946","OBJECT_NAME":"STARLINK-4524","OBJECT_TYPE":"PAYLOAD","NORAD_CAT_ID":"53396","FILE":"3742116","CENTER_NAME":"EARTH","SEMIMAJOR_AXIS":"6917.814","MEAN_MOTION":"15.08861618","PERIAPSIS":"537.747","GP_ID":"222865168","MEAN_ELEMENT_THEORY":"SGP4","EPOCH":"2023-01-13T00:52:51.860640","OBJECT_ID":"2022-097J","ECCENTRICITY":"0.00027930","TIME_SYSTEM":"UTC","CLASSIFICATION_TYPE":"U","REV_AT_EPOCH":"2416","LAUNCH_DATE":"2022-08-10","INCLINATION":"53.2172"},{"GP_ID":"222892179","SEMIMAJOR_AXIS":"6917.946","MEAN_MOTION":"15.08818419","PERIAPSIS":"538.256","CENTER_NAME":"EARTH","OBJECT_TYPE":"PAYLOAD","NORAD_CAT_ID":"53397","FILE":"3742227","OBJECT_NAME":"STARLINK-4515","COUNTRY_CODE":"US","ARG_OF_PERICENTER":"34.6006","CLASSIFICATION_TYPE":"U","LAUNCH_DATE":"2022-08-10","REV_AT_EPOCH":"2463","INCLINATION":"53.2151","TIME_SYSTEM":"UTC","ECCENTRICITY":"0.00022490","MEAN_ELEMENT_THEORY":"SGP4","EPOCH":"2023-01-12T21:58:02.403840","OBJECT_ID":"2022-097K","EPHEMERIS_TYPE":"0","RCS_SIZE":"LARGE","TLE_LINE1":"1 53397U 22097K   23012.91530560 -.00003358  00000-0 -19310-3 0  9992","RA_OF_ASC_NODE":"254.6523","BSTAR":"-0.00019310000000","DECAY_DATE":null,"TLE_LINE2":"2 53397  53.2151 254.6523 0002249  34.6006 325.5132 15.08818419 24630","PERIOD":"95.439","APOAPSIS":"541.367","MEAN_ANOMALY":"325.5132","MEAN_MOTION_DDOT":"0.0000000000000","MEAN_MOTION_DOT":"-0.00003358","REF_FRAME":"TEME","ELEMENT_SET_NO":"999","SITE":"AFETR"},{"FILE":"3742227","NORAD_CAT_ID":"53398","OBJECT_TYPE":"PAYLOAD","CENTER_NAME":"EARTH","ARG_OF_PERICENTER":"90.3715","COUNTRY_CODE":"US","OBJECT_NAME":"STARLINK-4512","GP_ID":"222892416","PERIAPSIS":"538.770","SEMIMAJOR_AXIS":"6917.892","MEAN_MOTION":"15.08836161","TIME_SYSTEM":"UTC","ECCENTRICITY":"0.00014270","OBJECT_ID":"2022-097L","EPOCH":"2023-01-12T21:31:32.261088","MEAN_ELEMENT_THEORY":"SGP4","LAUNCH_DATE":"2022-08-10","REV_AT_EPOCH":"2463","INCLINATION":"53.2168","CLASSIFICATION_TYPE":"U","RA_OF_ASC_NODE":"254.7165","DECAY_DATE":null,"BSTAR":"-0.00008812600000","RCS_SIZE":"LARGE","EPHEMERIS_TYPE":"0","TLE_LINE1":"1 53398U 22097L   23012.89690117 -.00001690  00000-0 -88126-4 0  9994","REF_FRAME":"TEME","MEAN_MOTION_DOT":"-0.00001690","SITE":"AFETR","ELEMENT_SET_NO":"999","TLE_LINE2":"2 53398  53.2168 254.7165 0001427  90.3715 269.7440 15.08836161 24630","MEAN_MOTION_DDOT":"0.0000000000000","MEAN_ANOMALY":"269.7440","APOAPSIS":"540.744","PERIOD":"95.438"}];
